{
  "type": "FeatureCollection",
  "features": [
    {
      "type": "Feature",
      "properties": {
        "id": "escuela1",
        "Nombre - Name": "Centro Educativo El Guayacán",
        "Provincia - Province": "Herrera",
        "Distrito - Distric": "Chitré",
        "Corregimiento - Village": "La Arena",
        "Electricidad - Electricity": "Sí",
        "Internet": "Sí",
        "Tipo_servicio - Service Type": "Fibra",
        "Nivel - Level": "Primaria",
        "Estado - State": "Activo"
      },
      "geometry": {
        "type": "Point",
        "coordinates": [-80.4321, 7.9632]
      }
    },
    {
      "type": "Feature",
      "properties": {
        "id": "escuela2",
        "Nombre - Name": "Escuela Rural La Esperanza",
        "Provincia - Province": "Los Santos",
        "Distrito - Distric": "Las Tablas",
        "Corregimiento - Village": "San José",
        "Electricidad - Electricity": "Sí",
        "Internet": "No",
        "Tipo_servicio - Service Type": "Ninguno",
        "Nivel - Level": "Primaria",
        "Estado - State": "Activo"
      },
      "geometry": {
        "type": "Point",
        "coordinates": [-80.2775, 7.7689]
      }
    },
    {
      "type": "Feature",
      "properties": {
        "id": "escuela3",
        "Nombre - Name": "Instituto Educativo Santa María",
        "Provincia - Province": "Herrera",
        "Distrito - Distric": "Parita",
        "Corregimiento - Village": "Cabecera",
        "Electricidad - Electricity": "Sí",
        "Internet": "Sí",
        "Tipo_servicio - Service Type": "Satelital",
        "Nivel - Level": "Secundaria",
        "Estado - State": "Activo"
      },
      "geometry": {
        "type": "Point",
        "coordinates": [-80.5213, 7.9934]
      }
    },
    {
      "type": "Feature",
      "properties": {
        "id": "escuela4",
        "Nombre - Name": "Centro Básico Nuevo Horizonte",
        "Provincia - Province": "Los Santos",
        "Distrito - Distric": "Guararé",
        "Corregimiento - Village": "El Espinal",
        "Electricidad - Electricity": "Sí",
        "Internet": "Sí",
        "Tipo_servicio - Service Type": "ADSL",
        "Nivel - Level": "Básica",
        "Estado - State": "Activo"
      },
      "geometry": {
        "type": "Point",
        "coordinates": [-80.3098, 7.8145]
      }
    },
    {
      "type": "Feature",
      "properties": {
        "id": "escuela5",
        "Nombre - Name": "Escuela Comunitaria San Miguel",
        "Provincia - Province": "Veraguas",
        "Distrito - Distric": "Santiago",
        "Corregimiento - Village": "Ponuga",
        "Electricidad - Electricity": "Sí",
        "Internet": "Sí",
        "Tipo_servicio - Service Type": "Satelital",
        "Nivel - Level": "Primaria",
        "Estado - State": "Activo"
      },
      "geometry": {
        "type": "Point",
        "coordinates": [-80.4892, 7.9321]
      }
    },
    {
      "type": "Feature",
      "properties": {
        "id": "escuela6",
        "Nombre - Name": "Colegio Técnico Azuero Digital",
        "Provincia - Province": "Herrera",
        "Distri - Districto": "Ocú",
        "Corregimiento - Village": "Cabecera",
        "Electricid - Electricityad": "Sí",
        "Internet": "Sí",
        "Tipo_servic - Service Typeio": "Fibra",
        "Niv - Levelel": "Secundaria",
        "Esta - Statedo": "Activo"
      },
      "geometry": {
        "type": "Point",
        "coordinates": [-80.7785, 7.9398]
      }
    }
  ]
}